{
  "norad_id": 61535,
  "name": "STARLINK-11362 [DTC]",
  "history": [
    {
      "epoch": "2026-04-16T05:15:22.767264Z",
      "apogee_km": 360.4946256570811,
      "perigee_km": 358.96243503547976,
      "latitude_deg": 2.2931038225128938e-05,
      "longitude_deg": 127.90228423032514,
      "height_km": 360.81844591992854,
      "semi_major_axis_km": 6737.86553034628,
      "eccentricity": 0.0001137,
      "inclination_deg": 53.1601,
      "raan_deg": 51.117,
      "arg_perigee_deg": 103.3017,
      "mean_anomaly_deg": 256.8128,
      "mean_motion_rev_day": 15.69709378
    },
    {
      "epoch": "2026-04-17T02:38:56.992704Z",
      "apogee_km": 360.4437354358188,
      "perigee_km": 359.00627995509603,
      "latitude_deg": 3.041001259406852e-05,
      "longitude_deg": 161.73741266962722,
      "height_km": 360.78416230436864,
      "semi_major_axis_km": 6737.862007695457,
      "eccentricity": 0.00010667,
      "inclination_deg": 53.1603,
      "raan_deg": 46.7233,
      "arg_perigee_deg": 101.6713,
      "mean_anomaly_deg": 258.4425,
      "mean_motion_rev_day": 15.69710609
    },
    {
      "epoch": "2026-04-18T12:15:59.116896Z",
      "apogee_km": 360.36117912325426,
      "perigee_km": 359.0503991870528,
      "latitude_deg": 1.718177684300094e-05,
      "longitude_deg": 9.193941365074675,
      "height_km": 360.7598887233236,
      "semi_major_axis_km": 6737.842789155154,
      "eccentricity": 9.727e-05,
      "inclination_deg": 53.1596,
      "raan_deg": 39.8193,
      "arg_perigee_deg": 102.3599,
      "mean_anomaly_deg": 257.7528,
      "mean_motion_rev_day": 15.69717325
    },
    {
      "epoch": "2026-04-19T02:01:07.815936Z",
      "apogee_km": 360.4037250081001,
      "perigee_km": 358.9829860993277,
      "latitude_deg": 1.895610958204466e-05,
      "longitude_deg": 159.5149049047439,
      "height_km": 360.35523326203605,
      "semi_major_axis_km": 6737.830355553713,
      "eccentricity": 0.00010543,
      "inclination_deg": 53.1592,
      "raan_deg": 36.9913,
      "arg_perigee_deg": 69.2349,
      "mean_anomaly_deg": 290.8782,
      "mean_motion_rev_day": 15.6972167
    },
    {
      "epoch": "2026-04-20T11:38:11.883264Z",
      "apogee_km": 360.551460282677,
      "perigee_km": 358.90243546007514,
      "latitude_deg": -4.660467813720128e-06,
      "longitude_deg": 6.963204043661201,
      "height_km": 360.6595511832409,
      "semi_major_axis_km": 6737.863947871376,
      "eccentricity": 0.00012237,
      "inclination_deg": 53.1595,
      "raan_deg": 30.0872,
      "arg_perigee_deg": 91.332,
      "mean_anomaly_deg": 268.7838,
      "mean_motion_rev_day": 15.69709931
    },
    {
      "epoch": "2026-04-21T04:26:42.067104Z",
      "apogee_km": 360.7064070621773,
      "perigee_km": 358.69933932075037,
      "latitude_deg": 4.057535183284032e-06,
      "longitude_deg": 110.69454709573829,
      "height_km": 360.481158252218,
      "semi_major_axis_km": 6737.839873191463,
      "eccentricity": 0.00014894,
      "inclination_deg": 53.1588,
      "raan_deg": 26.6346,
      "arg_perigee_deg": 82.2843,
      "mean_anomaly_deg": 277.8344,
      "mean_motion_rev_day": 15.69718344
    },
    {
      "epoch": "2026-04-22T03:21:59.589792Z",
      "apogee_km": 360.4917683686572,
      "perigee_km": 359.06589062082,
      "latitude_deg": 1.2875208048810538e-05,
      "longitude_deg": 121.22228603542936,
      "height_km": 360.6464993223691,
      "semi_major_axis_km": 6737.915829494738,
      "eccentricity": 0.00010581,
      "inclination_deg": 53.1594,
      "raan_deg": 21.9267,
      "arg_perigee_deg": 86.3027,
      "mean_anomaly_deg": 273.8112,
      "mean_motion_rev_day": 15.69691801
    },
    {
      "epoch": "2026-04-23T03:48:54.887040Z",
      "apogee_km": 360.65773619886113,
      "perigee_km": 358.7805694746803,
      "latitude_deg": -2.412410079614469e-05,
      "longitude_deg": 108.46607872854064,
      "height_km": 360.6803153451101,
      "semi_major_axis_km": 6737.85615283677,
      "eccentricity": 0.0001393,
      "inclination_deg": 53.1597,
      "raan_deg": 16.905,
      "arg_perigee_deg": 92.9272,
      "mean_anomaly_deg": 267.1905,
      "mean_motion_rev_day": 15.69712655
    },
    {
      "epoch": "2026-04-24T21:04:22.389888Z",
      "apogee_km": 360.16909139426116,
      "perigee_km": 359.1301246993007,
      "latitude_deg": 5.081985688691794e-05,
      "longitude_deg": -160.56905397816502,
      "height_km": 360.29462545533846,
      "semi_major_axis_km": 6737.786608046781,
      "eccentricity": 7.71e-05,
      "inclination_deg": 53.1589,
      "raan_deg": 8.4288,
      "arg_perigee_deg": 58.7997,
      "mean_anomaly_deg": 301.3097,
      "mean_motion_rev_day": 15.69736958
    },
    {
      "epoch": "2026-04-25T19:59:38.539680Z",
      "apogee_km": 360.34830758081534,
      "perigee_km": 359.21768460547173,
      "latitude_deg": -3.5014533210224293e-06,
      "longitude_deg": -150.03612369938077,
      "height_km": 360.6190857580141,
      "semi_major_axis_km": 6737.919996093144,
      "eccentricity": 8.39e-05,
      "inclination_deg": 53.1578,
      "raan_deg": 3.7204,
      "arg_perigee_deg": 82.102,
      "mean_anomaly_deg": 278.0093,
      "mean_motion_rev_day": 15.69690345
    },
    {
      "epoch": "2026-04-26T20:26:33.965664Z",
      "apogee_km": 360.46987838822315,
      "perigee_km": 358.93472908126023,
      "latitude_deg": 7.624478739417815e-05,
      "longitude_deg": -162.79527906425201,
      "height_km": 360.8871576255694,
      "semi_major_axis_km": 6737.839303734741,
      "eccentricity": 0.00011392,
      "inclination_deg": 53.159,
      "raan_deg": 358.6962,
      "arg_perigee_deg": 110.6963,
      "mean_anomaly_deg": 249.4178,
      "mean_motion_rev_day": 15.69718543
    },
    {
      "epoch": "2026-04-27T19:21:51.632640Z",
      "apogee_km": 360.54638957222505,
      "perigee_km": 359.07482181514115,
      "latitude_deg": 1.086502681557744e-05,
      "longitude_deg": -152.2620950287757,
      "height_km": 360.75940155341925,
      "semi_major_axis_km": 6737.947605693683,
      "eccentricity": 0.0001092,
      "inclination_deg": 53.1604,
      "raan_deg": 353.9944,
      "arg_perigee_deg": 92.7339,
      "mean_anomaly_deg": 267.3804,
      "mean_motion_rev_day": 15.69680697
    }
  ]
}